{
  "norad_id": 55353,
  "name": "STARLINK-5608",
  "history": [
    {
      "epoch": "2026-03-28T13:40:47.733888Z",
      "apogee_km": 485.0635388056053,
      "perigee_km": 483.19151304293337,
      "latitude_deg": -3.55430803930119e-05,
      "longitude_deg": 161.94382049922174,
      "height_km": 483.84250540474426,
      "semi_major_axis_km": 6862.264525924269,
      "eccentricity": 0.0001364,
      "inclination_deg": 43.0018,
      "raan_deg": 193.1313,
      "arg_perigee_deg": 273.7942,
      "mean_anomaly_deg": 86.2753,
      "mean_motion_rev_day": 15.27219917
    }
  ]
}